[{"OBJECT_NAME":"STARLINK-33753","OBJECT_ID":"2025-069L","EPOCH":"2026-03-03T14:29:50.103168","MEAN_MOTION":15.3018349,"ECCENTRICITY":0.0001158,"INCLINATION":53.1592,"RA_OF_ASC_NODE":170.6969,"ARG_OF_PERICENTER":78.8364,"MEAN_ANOMALY":281.2767,"EPHEMERIS_TYPE":0,"CLASSIFICATION_TYPE":"U","NORAD_CAT_ID":63443,"ELEMENT_SET_NO":999,"REV_AT_EPOCH":5246,"BSTAR":0.0010969,"MEAN_MOTION_DOT":0.00032253,"MEAN_MOTION_DDOT":0},{"OBJECT_NAME":"STARLINK-33747","OBJECT_ID":"2025-069M","EPOCH":"2026-03-03T15:54:46.213632","MEAN_MOTION":15.30196034,"ECCENTRICITY":0.00010467,"INCLINATION":53.1583,"RA_OF_ASC_NODE":170.3542,"ARG_OF_PERICENTER":76.9559,"MEAN_ANOMALY":283.1558,"EPHEMERIS_TYPE":0,"CLASSIFICATION_TYPE":"U","NORAD_CAT_ID":63444,"ELEMENT_SET_NO":999,"REV_AT_EPOCH":5243,"BSTAR":0.0010881604,"MEAN_MOTION_DOT":0.00032004,"MEAN_MOTION_DDOT":0},{"OBJECT_NAME":"STARLINK-33659","OBJECT_ID":"2025-069N","EPOCH":"2026-03-03T16:49:29.036928","MEAN_MOTION":15.3017172,"ECCENTRICITY":0.00013253,"INCLINATION":53.1604,"RA_OF_ASC_NODE":170.5901,"ARG_OF_PERICENTER":93.7807,"MEAN_ANOMALY":266.3345,"EPHEMERIS_TYPE":0,"CLASSIFICATION_TYPE":"U","NORAD_CAT_ID":63445,"ELEMENT_SET_NO":999,"REV_AT_EPOCH":5243,"BSTAR":0.0012705921,"MEAN_MOTION_DOT":0.00037429,"MEAN_MOTION_DDOT":0},{"OBJECT_NAME":"STARLINK-33746","OBJECT_ID":"2025-069P","EPOCH":"2026-03-03T16:11:29.156064","MEAN_MOTION":15.30190444,"ECCENTRICITY":0.00011975,"INCLINATION":53.1594,"RA_OF_ASC_NODE":170.4243,"ARG_OF_PERICENTER":104.0276,"MEAN_ANOMALY":256.0858,"EPHEMERIS_TYPE":0,"CLASSIFICATION_TYPE":"U","NORAD_CAT_ID":63446,"ELEMENT_SET_NO":999,"REV_AT_EPOCH":5243,"BSTAR":0.00090425268,"MEAN_MOTION_DOT":0.0002651,"MEAN_MOTION_DDOT":0},{"OBJECT_NAME":"STARLINK-33799","OBJECT_ID":"2025-069Q","EPOCH":"2026-03-03T13:38:19.732416","MEAN_MOTION":15.30201582,"ECCENTRICITY":0.0001178,"INCLINATION":53.1609,"RA_OF_ASC_NODE":171.1831,"ARG_OF_PERICENTER":97.1932,"MEAN_ANOMALY":262.9202,"EPHEMERIS_TYPE":0,"CLASSIFICATION_TYPE":"U","NORAD_CAT_ID":63447,"ELEMENT_SET_NO":999,"REV_AT_EPOCH":5235,"BSTAR":0.0014952,"MEAN_MOTION_DOT":0.0004419,"MEAN_MOTION_DDOT":0},{"OBJECT_NAME":"STARLINK-33797","OBJECT_ID":"2025-069R","EPOCH":"2026-03-03T14:11:35.847168","MEAN_MOTION":15.30210674,"ECCENTRICITY":0.0001144,"INCLINATION":53.1589,"RA_OF_ASC_NODE":170.6177,"ARG_OF_PERICENTER":63.0736,"MEAN_ANOMALY":297.0382,"EPHEMERIS_TYPE":0,"CLASSIFICATION_TYPE":"U","NORAD_CAT_ID":63448,"ELEMENT_SET_NO":999,"REV_AT_EPOCH":5242,"BSTAR":0.00065023,"MEAN_MOTION_DOT":0.00018954,"MEAN_MOTION_DDOT":0},{"OBJECT_NAME":"STARLINK-33798","OBJECT_ID":"2025-069S","EPOCH":"2026-03-03T12:08:48.406848","MEAN_MOTION":15.30168027,"ECCENTRICITY":0.00017371,"INCLINATION":53.1606,"RA_OF_ASC_NODE":171.5003,"ARG_OF_PERICENTER":35.4771,"MEAN_ANOMALY":324.6345,"EPHEMERIS_TYPE":0,"CLASSIFICATION_TYPE":"U","NORAD_CAT_ID":63449,"ELEMENT_SET_NO":999,"REV_AT_EPOCH":5218,"BSTAR":0.00012168516,"MEAN_MOTION_DOT":3.243e-5,"MEAN_MOTION_DDOT":0},{"OBJECT_NAME":"STARLINK-33736","OBJECT_ID":"2025-069T","EPOCH":"2026-03-03T12:28:25.525632","MEAN_MOTION":15.30195846,"ECCENTRICITY":0.0001193,"INCLINATION":53.1584,"RA_OF_ASC_NODE":170.8795,"ARG_OF_PERICENTER":60.617,"MEAN_ANOMALY":299.495,"EPHEMERIS_TYPE":0,"CLASSIFICATION_TYPE":"U","NORAD_CAT_ID":63450,"ELEMENT_SET_NO":999,"REV_AT_EPOCH":5241,"BSTAR":0.00078023,"MEAN_MOTION_DOT":0.00022817,"MEAN_MOTION_DDOT":0},{"OBJECT_NAME":"STARLINK-33740","OBJECT_ID":"2025-069U","EPOCH":"2026-03-03T16:06:55.576512","MEAN_MOTION":15.30185228,"ECCENTRICITY":0.00011583,"INCLINATION":53.1593,"RA_OF_ASC_NODE":170.4047,"ARG_OF_PERICENTER":91.6742,"MEAN_ANOMALY":268.4392,"EPHEMERIS_TYPE":0,"CLASSIFICATION_TYPE":"U","NORAD_CAT_ID":63451,"ELEMENT_SET_NO":999,"REV_AT_EPOCH":5237,"BSTAR":0.00076289779,"MEAN_MOTION_DOT":0.00022293,"MEAN_MOTION_DDOT":0},{"OBJECT_NAME":"STARLINK-33763","OBJECT_ID":"2025-069V","EPOCH":"2026-03-03T14:10:04.207008","MEAN_MOTION":15.30211267,"ECCENTRICITY":9.74e-5,"INCLINATION":53.1589,"RA_OF_ASC_NODE":170.5976,"ARG_OF_PERICENTER":74.4571,"MEAN_ANOMALY":285.6537,"EPHEMERIS_TYPE":0,"CLASSIFICATION_TYPE":"U","NORAD_CAT_ID":63452,"ELEMENT_SET_NO":999,"REV_AT_EPOCH":5247,"BSTAR":0.00051443,"MEAN_MOTION_DOT":0.00014913,"MEAN_MOTION_DDOT":0},{"OBJECT_NAME":"STARLINK-33784","OBJECT_ID":"2025-069W","EPOCH":"2026-03-03T16:44:54.977856","MEAN_MOTION":15.30211316,"ECCENTRICITY":0.00013299,"INCLINATION":53.1608,"RA_OF_ASC_NODE":170.5669,"ARG_OF_PERICENTER":73.896,"MEAN_ANOMALY":286.2187,"EPHEMERIS_TYPE":0,"CLASSIFICATION_TYPE":"U","NORAD_CAT_ID":63453,"ELEMENT_SET_NO":999,"REV_AT_EPOCH":5248,"BSTAR":0.0017400841,"MEAN_MOTION_DOT":0.00051553,"MEAN_MOTION_DDOT":0},{"OBJECT_NAME":"STARLINK-33768","OBJECT_ID":"2025-069X","EPOCH":"2026-03-03T17:36:25.470432","MEAN_MOTION":15.30174815,"ECCENTRICITY":0.00014541,"INCLINATION":53.1593,"RA_OF_ASC_NODE":170.066,"ARG_OF_PERICENTER":103.5376,"MEAN_ANOMALY":256.5786,"EPHEMERIS_TYPE":0,"CLASSIFICATION_TYPE":"U","NORAD_CAT_ID":63454,"ELEMENT_SET_NO":999,"REV_AT_EPOCH":5249,"BSTAR":0.0012243051,"MEAN_MOTION_DOT":0.00036049,"MEAN_MOTION_DDOT":0},{"OBJECT_NAME":"STARLINK-33761","OBJECT_ID":"2025-069Y","EPOCH":"2026-03-03T14:14:37.293216","MEAN_MOTION":15.30242193,"ECCENTRICITY":0.0001315,"INCLINATION":53.1586,"RA_OF_ASC_NODE":170.6174,"ARG_OF_PERICENTER":76.9889,"MEAN_ANOMALY":283.1259,"EPHEMERIS_TYPE":0,"CLASSIFICATION_TYPE":"U","NORAD_CAT_ID":63455,"ELEMENT_SET_NO":999,"REV_AT_EPOCH":5247,"BSTAR":0.0012993,"MEAN_MOTION_DOT":0.00038373,"MEAN_MOTION_DDOT":0},{"OBJECT_NAME":"STARLINK-33737","OBJECT_ID":"2025-069Z","EPOCH":"2026-03-03T12:49:41.619936","MEAN_MOTION":15.30213276,"ECCENTRICITY":0.0001446,"INCLINATION":53.1571,"RA_OF_ASC_NODE":170.9527,"ARG_OF_PERICENTER":132.8878,"MEAN_ANOMALY":227.2245,"EPHEMERIS_TYPE":0,"CLASSIFICATION_TYPE":"U","NORAD_CAT_ID":63456,"ELEMENT_SET_NO":999,"REV_AT_EPOCH":5235,"BSTAR":0.00095381,"MEAN_MOTION_DOT":0.00028008,"MEAN_MOTION_DDOT":0},{"OBJECT_NAME":"STARLINK-33795","OBJECT_ID":"2025-069AA","EPOCH":"2026-03-03T16:37:20.598528","MEAN_MOTION":15.30237728,"ECCENTRICITY":0.00013576,"INCLINATION":53.1607,"RA_OF_ASC_NODE":170.5259,"ARG_OF_PERICENTER":86.9087,"MEAN_ANOMALY":273.2069,"EPHEMERIS_TYPE":0,"CLASSIFICATION_TYPE":"U","NORAD_CAT_ID":63457,"ELEMENT_SET_NO":999,"REV_AT_EPOCH":5237,"BSTAR":0.0021707239,"MEAN_MOTION_DOT":0.00064567,"MEAN_MOTION_DDOT":0},{"OBJECT_NAME":"STARLINK-33756","OBJECT_ID":"2025-069AB","EPOCH":"2026-03-03T16:41:52.171008","MEAN_MOTION":15.30217794,"ECCENTRICITY":0.00013785,"INCLINATION":53.161,"RA_OF_ASC_NODE":170.5379,"ARG_OF_PERICENTER":84.9586,"MEAN_ANOMALY":275.1572,"EPHEMERIS_TYPE":0,"CLASSIFICATION_TYPE":"U","NORAD_CAT_ID":63458,"ELEMENT_SET_NO":999,"REV_AT_EPOCH":5248,"BSTAR":0.0018756056,"MEAN_MOTION_DOT":0.00055638,"MEAN_MOTION_DDOT":0}]
