STARLINK-33753          
1 63443U 25069L   26062.60405212  .00032253  00000+0  10969-2 0  9999
2 63443  53.1592 170.6969 0001158  78.8364 281.2767 15.30183490 52460
STARLINK-33747          
1 63444U 25069M   26062.66303488  .00032004  00000+0  10882-2 0  9996
2 63444  53.1583 170.3542 0001046  76.9559 283.1558 15.30196034 52430
STARLINK-33659          
1 63445U 25069N   26062.70103052  .00037429  00000+0  12706-2 0  9990
2 63445  53.1604 170.5901 0001325  93.7807 266.3345 15.30171720 52431
STARLINK-33746          
1 63446U 25069P   26062.67464301  .00026510  00000+0  90425-3 0  9998
2 63446  53.1594 170.4243 0001197 104.0276 256.0858 15.30190444 52430
STARLINK-33799          
1 63447U 25069Q   26062.56828394  .00044190  00000+0  14952-2 0  9997
2 63447  53.1609 171.1831 0001178  97.1932 262.9202 15.30201582 52355
STARLINK-33797          
1 63448U 25069R   26062.59138712  .00018954  00000+0  65023-3 0  9994
2 63448  53.1589 170.6177 0001144  63.0736 297.0382 15.30210674 52425
STARLINK-33798          
1 63449U 25069S   26062.50611582  .00003243  00000+0  12169-3 0  9995
2 63449  53.1606 171.5003 0001737  35.4771 324.6345 15.30168027 52187
STARLINK-33736          
1 63450U 25069T   26062.51973988  .00022817  00000+0  78023-3 0  9998
2 63450  53.1584 170.8795 0001193  60.6170 299.4950 15.30195846 52419
STARLINK-33740          
1 63451U 25069U   26062.67147658  .00022293  00000+0  76290-3 0  9995
2 63451  53.1593 170.4047 0001158  91.6742 268.4392 15.30185228 52370
STARLINK-33763          
1 63452U 25069V   26062.59032647  .00014913  00000+0  51443-3 0  9991
2 63452  53.1589 170.5976 0000974  74.4571 285.6537 15.30211267 52478
STARLINK-33784          
1 63453U 25069W   26062.69785854  .00051553  00000+0  17401-2 0  9994
2 63453  53.1608 170.5669 0001329  73.8960 286.2187 15.30211316 52484
STARLINK-33768          
1 63454U 25069X   26062.73362813  .00036049  00000+0  12243-2 0  9998
2 63454  53.1593 170.0660 0001454 103.5376 256.5786 15.30174815 52493
STARLINK-33761          
1 63455U 25069Y   26062.59348719  .00038373  00000+0  12993-2 0  9996
2 63455  53.1586 170.6174 0001315  76.9889 283.1259 15.30242193 52474
STARLINK-33737          
1 63456U 25069Z   26062.53450949  .00028008  00000+0  95381-3 0  9997
2 63456  53.1571 170.9527 0001446 132.8878 227.2245 15.30213276 52350
STARLINK-33795          
1 63457U 25069AA  26062.69259952  .00064567  00000+0  21707-2 0  9996
2 63457  53.1607 170.5259 0001357  86.9087 273.2069 15.30237728 52376
STARLINK-33756          
1 63458U 25069AB  26062.69574272  .00055638  00000+0  18756-2 0  9991
2 63458  53.1610 170.5379 0001378  84.9586 275.1572 15.30217794 52482
